NORAD_CAT_ID,OBJECT_NAME,OBJECT_TYPE,EPOCH,MEAN_MOTION,ECCENTRICITY,INCLINATION,RA_OF_ASC_NODE,ARG_OF_PERICENTER,MEAN_ANOMALY,BSTAR,MEAN_MOTION_DOT,MEAN_MOTION_DDOT,TLE_LINE0,TLE_LINE1,TLE_LINE2,SEMIMAJOR_AXIS,PERIOD,APOGEE,PERIGEE,DECAYED
53831.0,STARLINK-4649,PAYLOAD,2023-09-23 11:42:26,15.08843598,0.0001116,53.2168,16.2917,105.9451,254.1664,5.6358e-05,6.09e-06,0.0,0 STARLINK-4649,1 53831U 22114P   23266.48780993  .00000609  00000-0  56358-4 0  9993,2 53831  53.2168  16.2917 0001116 105.9451 254.1664 15.08843598 56692,6917.869,95.437,540.506,538.962,0.0
53831.0,STARLINK-4649,PAYLOAD,2023-09-23 13:17:49,15.08846349,0.000112,53.217,15.994,101.9669,258.1448,7.7685e-05,9.49e-06,0.0,0 STARLINK-4649,1 53831U 22114P   23266.55404953  .00000949  00000-0  77685-4 0  9993,2 53831  53.2170  15.9940 0001120 101.9669 258.1448 15.08846349 57242,6917.861,95.437,540.501,538.951,0.0
53831.0,STARLINK-4649,PAYLOAD,2023-09-23 14:53:12,15.0885191,0.0001168,53.2172,15.6962,106.7827,253.3294,0.00017197,2.451e-05,0.0,0 STARLINK-4649,1 53831U 22114P   23266.62028742  .00002451  00000-0  17197-3 0  9990,2 53831  53.2172  15.6962 0001168 106.7827 253.3294 15.08851910 56713,6917.844,95.437,540.517,538.901,0.0
53831.0,STARLINK-4649,PAYLOAD,2023-09-24 08:22:27,15.08841996,0.0001219,53.2167,12.4263,84.6902,275.4229,9.9639e-05,1.298e-05,0.0,0 STARLINK-4649,1 53831U 22114P   23267.34893116  .00001298  00000-0  99639-4 0  9995,2 53831  53.2167  12.4263 0001219  84.6902 275.4229 15.08841996 56829,6917.874,95.437,540.583,538.896,0.0
53831.0,STARLINK-4649,PAYLOAD,2023-09-24 13:08:36,15.08848415,0.0001302,53.2172,11.5334,92.2337,267.8805,0.00018521,2.662e-05,0.0,0 STARLINK-4649,1 53831U 22114P   23267.54764845  .00002662  00000-0  18521-3 0  9999,2 53831  53.2172  11.5334 0001302  92.2337 267.8805 15.08848415 57395,6917.855,95.437,540.62,538.819,0.0
53831.0,STARLINK-4649,PAYLOAD,2023-09-24 14:43:59,15.08851408,0.0001287,53.2173,11.2361,84.6791,275.4347,0.00024971,3.69e-05,0.0,0 STARLINK-4649,1 53831U 22114P   23267.61388747  .00003690  00000-0  24971-3 0  9998,2 53831  53.2173  11.2361 0001287  84.6791 275.4347 15.08851408 57408,6917.846,95.437,540.601,538.82,0.0
53831.0,STARLINK-4649,PAYLOAD,2023-09-25 06:37:51,15.08846662,0.0001357,53.2167,8.2633,92.9967,267.118,0.00025014,3.696e-05,0.0,0 STARLINK-4649,1 53831U 22114P   23268.27629321  .00003696  00000-0  25014-3 0  9992,2 53831  53.2167   8.2633 0001357  92.9967 267.1180 15.08846662 56963,6917.86,95.437,540.664,538.786,0.0
53831.0,STARLINK-4649,PAYLOAD,2023-09-25 12:59:23,15.08851736,0.0001433,53.2178,7.0722,101.4202,258.6951,0.00025317,3.745e-05,0.0,0 STARLINK-4649,1 53831U 22114P   23268.54124648  .00003745  00000-0  25317-3 0  9995,2 53831  53.2178   7.0722 0001433 101.4202 258.6951 15.08851736 57548,6917.845,95.437,540.701,538.718,0.0
53831.0,STARLINK-4649,PAYLOAD,2023-09-26 09:39:24,15.08853548,0.0001577,53.2174,3.2067,102.8069,257.3099,0.00030207,4.524e-05,0.0,0 STARLINK-4649,1 53831U 22114P   23269.40236420  .00004524  00000-0  30207-3 0  9993,2 53831  53.2174   3.2067 0001577 102.8069 257.3099 15.08853548 57136,6917.839,95.437,540.795,538.613,0.0
53831.0,STARLINK-4649,PAYLOAD,2023-09-26 12:50:10,15.08861292,0.0001517,53.2183,2.6126,90.7934,269.3232,0.00049709,7.637e-05,0.0,0 STARLINK-4649,1 53831U 22114P   23269.53484117  .00007637  00000-0  49709-3 0  9990,2 53831  53.2183   2.6126 0001517  90.7934 269.3232 15.08861292 57693,6917.815,95.436,540.73,538.631,0.0
53831.0,STARLINK-4649,PAYLOAD,2023-09-27 09:30:11,15.08811056,0.0001523,53.2186,358.747,88.1094,272.0072,-0.0008167,-0.00013252,0.0,0 STARLINK-4649,1 53831U 22114P   23270.39596926 -.00013252  00000-0 -81670-3 0  9993,2 53831  53.2186 358.7470 0001523  88.1094 272.0072 15.08811056 57289,6917.969,95.439,540.887,538.78,0.0
53831.0,STARLINK-4649,PAYLOAD,2023-09-27 12:40:58,15.08810239,0.0001601,53.2187,358.1518,91.471,268.6466,-0.00076134,-0.00012374,0.0,0 STARLINK-4649,1 53831U 22114P   23270.52845105 -.00012374  00000-0 -76134-3 0  9997,2 53831  53.2187 358.1518 0001601  91.4710 268.6466 15.08810239 57848,6917.971,95.439,540.944,538.729,0.0
53831.0,STARLINK-4649,PAYLOAD,2023-09-28 12:31:46,15.08828186,0.0001709,53.2185,353.6924,95.7273,264.3914,0.00054902,8.458e-05,0.0,0 STARLINK-4649,1 53831U 22114P   23271.52206310  .00008458  00000-0  54902-3 0  9992,2 53831  53.2185 353.6924 0001709  95.7273 264.3914 15.08828186 57455,6917.916,95.438,540.964,538.599,0.0
53831.0,STARLINK-4649,PAYLOAD,2023-09-28 14:07:09,15.08834901,0.0001639,53.2188,353.3923,84.488,275.6299,0.0012031,0.00018908,0.0,0 STARLINK-4649,1 53831U 22114P   23271.58830501  .00018908  00000-0  12031-2 0  9990,2 53831  53.2188 353.3923 0001639  84.4880 275.6299 15.08834901 58000,6917.896,95.438,540.895,538.627,0.0
53831.0,STARLINK-4649,PAYLOAD,2023-09-28 15:42:32,15.08845472,0.0001614,53.2186,353.0959,83.235,276.8826,0.0014858,0.00023441,0.0,0 STARLINK-4649,1 53831U 22114P   23271.65454480  .00023441  00000-0  14858-2 0  9993,2 53831  53.2186 353.0959 0001614  83.2350 276.8826 15.08845472 57470,6917.864,95.437,540.845,538.612,0.0
53831.0,STARLINK-4649,PAYLOAD,2023-09-29 12:22:33,15.08858799,0.0001736,53.2184,349.232,97.9292,262.1897,0.0012944,0.00020383,0.0,0 STARLINK-4649,1 53831U 22114P   23272.51566333  .00020383  00000-0  12944-2 0  9996,2 53831  53.2184 349.2320 0001736  97.9292 262.1897 15.08858799 57606,6917.823,95.436,540.889,538.487,0.0
53831.0,STARLINK-4649,PAYLOAD,2023-09-30 10:37:56,15.08857926,0.0001849,53.2174,345.0678,120.8148,239.3026,0.00054698,8.432e-05,0.0,0 STARLINK-4649,1 53831U 22114P   23273.44301509  .00008432  00000-0  54698-3 0  9995,2 53831  53.2174 345.0678 0001849 120.8148 239.3026 15.08857926 57742,6917.826,95.436,540.97,538.411,0.0
53831.0,STARLINK-4649,PAYLOAD,2023-09-30 21:45:38,15.08845818,0.000161,53.2171,342.9852,95.7667,264.3509,5.3575e-05,5.65e-06,0.0,0 STARLINK-4649,1 53831U 22114P   23273.90669653  .00000565  00000-0  53575-4 0  9996,2 53831  53.2171 342.9852 0001610  95.7667 264.3509 15.08845818 57810,6917.863,95.437,540.841,538.614,0.0
53831.0,STARLINK-4649,PAYLOAD,2023-10-01 10:28:43,15.08848331,0.00018,53.2179,340.608,97.5138,262.6059,5.5874e-05,6.01e-06,0.0,0 STARLINK-4649,1 53831U 22114P   23274.43661413  .00000601  00000-0  55874-4 0  9996,2 53831  53.2179 340.6080 0001800  97.5138 262.6059 15.08848331 58433,6917.855,95.437,540.965,538.475,0.0
53831.0,STARLINK-4649,PAYLOAD,2023-10-01 13:39:29,15.08852429,0.0001749,53.2183,340.0159,98.9568,261.1622,0.00017431,2.488e-05,0.0,0 STARLINK-4649,1 53831U 22114P   23274.56909157  .00002488  00000-0  17431-3 0  9991,2 53831  53.2183 340.0159 0001749  98.9568 261.1622 15.08852429 58458,6917.842,95.437,540.917,538.497,0.0
53831.0,STARLINK-4649,PAYLOAD,2023-10-01 23:11:49,15.0883247,0.0001523,53.2153,338.2292,82.9125,277.204,-0.00016193,-2.864e-05,0.0,0 STARLINK-4649,1 53831U 22114P   23274.96653960 -.00002864  00000-0 -16193-3 0  9997,2 53831  53.2153 338.2292 0001523  82.9125 277.2040 15.08832470 57976,6917.903,95.438,540.822,538.715,0.0
53831.0,STARLINK-4649,PAYLOAD,2023-10-02 11:54:54,15.08832116,0.0001452,53.2169,335.8516,85.0755,275.0403,-0.00013441,-2.426e-05,0.0,0 STARLINK-4649,1 53831U 22114P   23275.49646634 -.00002426  00000-0 -13441-3 0  9993,2 53831  53.2169 335.8516 0001452  85.0755 275.0403 15.08832116 58594,6917.904,95.438,540.774,538.765,0.0
53831.0,STARLINK-4649,PAYLOAD,2023-10-03 10:10:18,15.08850283,0.000139,53.2158,331.6875,82.4097,277.7053,0.00038551,5.854e-05,0.0,0 STARLINK-4649,1 53831U 22114P   23276.42382301  .00005854  00000-0  38551-3 0  9990,2 53831  53.2158 331.6875 0001390  82.4097 277.7053 15.08850283 58196,6917.849,95.437,540.676,538.752,0.0
53831.0,STARLINK-4649,PAYLOAD,2023-10-04 10:01:05,15.08851332,0.000153,53.2164,327.2252,93.0056,267.1111,0.00038619,5.865e-05,0.0,0 STARLINK-4649,1 53831U 22114P   23277.41742381  .00005865  00000-0  38619-3 0  9995,2 53831  53.2164 327.2252 0001530  93.0056 267.1111 15.08851332 58343,6917.846,95.437,540.769,538.652,0.0
53831.0,STARLINK-4649,PAYLOAD,2023-10-05 09:51:51,15.08855019,0.0001576,53.2158,322.7654,82.0839,278.0332,0.00026377,3.914e-05,0.0,0 STARLINK-4649,1 53831U 22114P   23278.41101787  .00003914  00000-0  26377-3 0  9996,2 53831  53.2158 322.7654 0001576  82.0839 278.0332 15.08855019 58497,6917.834,95.437,540.79,538.609,0.0
53831.0,STARLINK-4649,PAYLOAD,2023-10-06 03:21:06,15.08838583,0.000169,53.2172,319.4964,82.0507,278.0676,-9.3868e-05,-1.782e-05,0.0,0 STARLINK-4649,1 53831U 22114P   23279.13966378 -.00001782  00000-0 -93868-4 0  9994,2 53831  53.2172 319.4964 0001690  82.0507 278.0676 15.08838583 58600,6917.885,95.438,540.919,538.581,0.0
53831.0,STARLINK-4649,PAYLOAD,2023-10-06 12:53:25,15.08841992,0.0001493,53.2163,317.7095,89.3264,270.7899,0.00011518,1.546e-05,0.0,0 STARLINK-4649,1 53831U 22114P   23279.53710374  .00001546  00000-0  11518-3 0  9998,2 53831  53.2163 317.7095 0001493  89.3264 270.7899 15.08841992 59208,6917.874,95.437,540.772,538.706,0.0
53831.0,STARLINK-4649,PAYLOAD,2023-10-06 19:14:58,15.08836252,0.0001435,53.2159,316.519,83.9434,276.1722,1.1241e-05,-1.09e-06,0.0,0 STARLINK-4649,1 53831U 22114P   23279.80206611 -.00000109  00000-0  11241-4 0  9991,2 53831  53.2159 316.5190 0001435  83.9434 276.1722 15.08836252 59243,6917.892,95.438,540.75,538.764,0.0
53831.0,STARLINK-4649,PAYLOAD,2023-10-07 09:33:26,15.08844833,0.000164,53.2165,313.8445,94.8067,265.3113,9.7908e-05,1.271e-05,0.0,0 STARLINK-4649,1 53831U 22114P   23280.39822305  .00001271  00000-0  97908-4 0  9995,2 53831  53.2165 313.8445 0001640  94.8067 265.3113 15.08844833 58791,6917.866,95.437,540.865,538.596,0.0
53831.0,STARLINK-4649,PAYLOAD,2023-10-07 19:05:45,15.08840566,0.0001642,53.217,312.0609,85.3318,274.7862,0.0001481,2.07e-05,0.0,0 STARLINK-4649,1 53831U 22114P   23280.79566627  .00002070  00000-0  14810-3 0  9999,2 53831  53.2170 312.0609 0001642  85.3318 274.7862 15.08840566 59397,6917.879,95.438,540.88,538.608,0.0
